[{"OBJECT_NAME":"RESURS-P 5","OBJECT_ID":"2024-250A","EPOCH":"2026-03-09T23:31:56.908992","MEAN_MOTION":15.32839945,"ECCENTRICITY":0.00026027,"INCLINATION":97.276,"RA_OF_ASC_NODE":355.9792,"ARG_OF_PERICENTER":63.1234,"MEAN_ANOMALY":297.0274,"EPHEMERIS_TYPE":0,"CLASSIFICATION_TYPE":"U","NORAD_CAT_ID":62430,"ELEMENT_SET_NO":999,"REV_AT_EPOCH":6735,"BSTAR":0.00015600887,"MEAN_MOTION_DOT":4.871e-5,"MEAN_MOTION_DDOT":0},{"OBJECT_NAME":"STARLINK-35208","OBJECT_ID":"2025-223A","EPOCH":"2026-03-09T21:51:46.472256","MEAN_MOTION":15.30215673,"ECCENTRICITY":0.00012944,"INCLINATION":53.1569,"RA_OF_ASC_NODE":292.8564,"ARG_OF_PERICENTER":122.1307,"MEAN_ANOMALY":237.982,"EPHEMERIS_TYPE":0,"CLASSIFICATION_TYPE":"U","NORAD_CAT_ID":65854,"ELEMENT_SET_NO":999,"REV_AT_EPOCH":2424,"BSTAR":0.00086554385,"MEAN_MOTION_DOT":0.00025376,"MEAN_MOTION_DDOT":0}]
